XRISM                   
1 57800U 23137A   24270.77527897  .00011865  00000+0  85426-3 0  9991
2 57800  31.0031  85.1948 0009057 132.6382 227.5019 15.02979314 57897
